[{"city":"Alaminos","street":"Becker","street_number":"49286","postal_code":"50"},
{"city":"Kowingir","street":"Anzinger","street_number":"109","postal_code":"8"},
{"city":"Mafraq","street":"Village","street_number":"0153","postal_code":"80748"},
{"city":"Santa Rosa","street":"Pond","street_number":"83284","postal_code":"853"},
{"city":"Dongli","street":"Burrows","street_number":"20319","postal_code":"7"},
{"city":"Anao","street":"Nelson","street_number":"42","postal_code":"0"},
{"city":"Sargodha","street":"Main","street_number":"45397","postal_code":"784"},
{"city":"Yecun","street":"Hagan","street_number":"11","postal_code":"9"},
{"city":"Huadian","street":"Veith","street_number":"781","postal_code":"95"},
{"city":"Bonak","street":"Kedzie","street_number":"79","postal_code":"551"},
{"city":"Novopokrovka","street":"Kings","street_number":"3","postal_code":"42"},
{"city":"Pedrogão","street":"Schlimgen","street_number":"23","postal_code":"8"},
{"city":"Fīrūzābād","street":"Larry","street_number":"65","postal_code":"61"},
{"city":"Plato","street":"Ridgeway","street_number":"2","postal_code":"80729"},
{"city":"Cavinti","street":"Dorton","street_number":"485","postal_code":"136"},
{"city":"Cabeço de Vide","street":"Warrior","street_number":"901","postal_code":"514"},
{"city":"Claveria","street":"Fieldstone","street_number":"72","postal_code":"78"},
{"city":"Lindavista","street":"Dawn","street_number":"3","postal_code":"53"},
{"city":"Mlawat","street":"Ilene","street_number":"1","postal_code":"57321"},
{"city":"Buensuseso","street":"Novick","street_number":"38","postal_code":"8"},
{"city":"Gunungmalang Satu","street":"Randy","street_number":"56900","postal_code":"1780"},
{"city":"Guihulñgan","street":"Springview","street_number":"86","postal_code":"0872"},
{"city":"Muliang","street":"Atwood","street_number":"2638","postal_code":"3393"},
{"city":"Ujar","street":"Ramsey","street_number":"02994","postal_code":"452"},
{"city":"Géfyra","street":"Glacier Hill","street_number":"855","postal_code":"96864"},
{"city":"Votkinsk","street":"Sauthoff","street_number":"8395","postal_code":"847"},
{"city":"Cacocum","street":"Weeping Birch","street_number":"43","postal_code":"082"},
{"city":"Orhon","street":"Cottonwood","street_number":"43","postal_code":"65009"},
{"city":"Descalvado","street":"Northland","street_number":"6780","postal_code":"5433"},
{"city":"Ninh Giang","street":"Clove","street_number":"7","postal_code":"51"},
{"city":"Japeri","street":"Bunting","street_number":"8345","postal_code":"4045"},
{"city":"Bucay","street":"Stephen","street_number":"6","postal_code":"34911"},
{"city":"Lokokrangan","street":"Memorial","street_number":"57","postal_code":"06"},
{"city":"Berlin","street":"Esker","street_number":"18046","postal_code":"51417"},
{"city":"Ji’an","street":"Debra","street_number":"8","postal_code":"5720"},
{"city":"Zhongxian","street":"Meadow Valley","street_number":"209","postal_code":"44"},
{"city":"Kolodeznyy","street":"Merchant","street_number":"10","postal_code":"24517"},
{"city":"San Miguel","street":"Emmet","street_number":"6","postal_code":"4"},
{"city":"Nagiba","street":"6th","street_number":"85281","postal_code":"74356"},
{"city":"Shanmei","street":"Eastwood","street_number":"14478","postal_code":"928"},
{"city":"Paquera","street":"Sutherland","street_number":"085","postal_code":"128"},
{"city":"Gyodong","street":"Roxbury","street_number":"654","postal_code":"44022"},
{"city":"Chian Yai","street":"Upham","street_number":"7103","postal_code":"730"},
{"city":"Bandar ‘Abbās","street":"Carpenter","street_number":"01188","postal_code":"45"},
{"city":"Aghavnadzor","street":"Thackeray","street_number":"0","postal_code":"2"},
{"city":"Las Lomas","street":"Leroy","street_number":"6485","postal_code":"845"},
{"city":"Yangjiapo","street":"Hoepker","street_number":"178","postal_code":"9"},
{"city":"Tubod","street":"Delladonna","street_number":"07042","postal_code":"14"},
{"city":"Xuancheng","street":"Heath","street_number":"1","postal_code":"325"},
{"city":"Karangpapak","street":"Bonner","street_number":"987","postal_code":"377"},
{"city":"Şirvan","street":"Clove","street_number":"40","postal_code":"3"},
{"city":"Nangkaruka","street":"Harbort","street_number":"500","postal_code":"39"},
{"city":"Višnjićevo","street":"Main","street_number":"1289","postal_code":"1"},
{"city":"Las Parejas","street":"Westridge","street_number":"23","postal_code":"71"},
{"city":"Velingrad","street":"Golf","street_number":"624","postal_code":"70"},
{"city":"Tasovčići","street":"Cordelia","street_number":"9372","postal_code":"7569"},
{"city":"Komendantsky aerodrom","street":"Southridge","street_number":"77981","postal_code":"062"},
{"city":"Sōja","street":"Hauk","street_number":"49","postal_code":"2504"},
{"city":"Makīnsk","street":"Knutson","street_number":"0381","postal_code":"66"},
{"city":"Quime","street":"Bultman","street_number":"61","postal_code":"19992"},
{"city":"Duncan Town","street":"Katie","street_number":"8","postal_code":"51"},
{"city":"Limatambo","street":"Tomscot","street_number":"723","postal_code":"9"},
{"city":"Buan","street":"Toban","street_number":"321","postal_code":"514"},
{"city":"Orléans","street":"Green","street_number":"2521","postal_code":"01"},
{"city":"Franca","street":"Waywood","street_number":"7","postal_code":"96351"},
{"city":"Ash Shawātī","street":"Mesta","street_number":"9840","postal_code":"8"},
{"city":"Eirado","street":"Village Green","street_number":"22865","postal_code":"52141"},
{"city":"Bouças","street":"Lotheville","street_number":"2955","postal_code":"62"},
{"city":"Annaka","street":"Blackbird","street_number":"64","postal_code":"81853"},
{"city":"København","street":"Norway Maple","street_number":"4130","postal_code":"99"},
{"city":"Sergokala","street":"Eastwood","street_number":"907","postal_code":"903"},
{"city":"Pozo Hondo","street":"Heath","street_number":"1554","postal_code":"51"},
{"city":"Serravalle","street":"Forster","street_number":"218","postal_code":"3"},
{"city":"Joyabaj","street":"Dottie","street_number":"35","postal_code":"21"},
{"city":"Jacura","street":"Oakridge","street_number":"8","postal_code":"804"},
{"city":"Horad Pinsk","street":"Green","street_number":"07","postal_code":"0142"},
{"city":"Kangān","street":"Twin Pines","street_number":"90291","postal_code":"1"},
{"city":"Rayevskiy","street":"Rowland","street_number":"4616","postal_code":"37"},
{"city":"Xinqiao","street":"Dixon","street_number":"36816","postal_code":"7"},
{"city":"Kuruman","street":"Debra","street_number":"52","postal_code":"1965"},
{"city":"Loandjili","street":"Melvin","street_number":"176","postal_code":"0"},
{"city":"Jiulong","street":"Nancy","street_number":"46","postal_code":"018"},
{"city":"Besteiros","street":"Hintze","street_number":"59607","postal_code":"7"},
{"city":"Lugo","street":"Garrison","street_number":"8948","postal_code":"44"},
{"city":"Posse","street":"Mayfield","street_number":"9468","postal_code":"6819"},
{"city":"Meixian","street":"Golf View","street_number":"85718","postal_code":"7"},
{"city":"Xai-Xai","street":"Dahle","street_number":"91108","postal_code":"663"},
{"city":"Kuala Lumpur","street":"Warbler","street_number":"65894","postal_code":"1718"},
{"city":"Montbéliard","street":"Merrick","street_number":"1","postal_code":"3"},
{"city":"Dahewan","street":"West","street_number":"517","postal_code":"4"},
{"city":"Mashi","street":"Myrtle","street_number":"5","postal_code":"70"},
{"city":"Pita Kotte","street":"Di Loreto","street_number":"66057","postal_code":"9116"},
{"city":"Shuigou","street":"Memorial","street_number":"8576","postal_code":"0062"},
{"city":"Labuan","street":"Shelley","street_number":"4313","postal_code":"619"},
{"city":"Vavuniya","street":"Debra","street_number":"6","postal_code":"0302"},
{"city":"Lobatse","street":"Heath","street_number":"7783","postal_code":"4308"},
{"city":"Garango","street":"Eagle Crest","street_number":"02","postal_code":"4397"},
{"city":"Youlan","street":"Stoughton","street_number":"414","postal_code":"0"},
{"city":"Shanhou","street":"Bunting","street_number":"09","postal_code":"1"},
{"city":"Volodars’k-Volyns’kyy","street":"Dixon","street_number":"9984","postal_code":"29"},
{"city":"Jaqué","street":"Magdeline","street_number":"532","postal_code":"35"},
{"city":"Sīnah","street":"Russell","street_number":"7343","postal_code":"102"},
{"city":"Shah Alam","street":"Kedzie","street_number":"20","postal_code":"902"},
{"city":"Levallois-Perret","street":"Commercial","street_number":"0","postal_code":"10115"},
{"city":"Simabur","street":"Ryan","street_number":"6148","postal_code":"734"},
{"city":"Karangboyo","street":"Canary","street_number":"06284","postal_code":"8"},
{"city":"Yuanjue","street":"Reinke","street_number":"23001","postal_code":"3729"},
{"city":"Knoxville","street":"Mallory","street_number":"671","postal_code":"5"},
{"city":"Novoshakhtinskiy","street":"Del Mar","street_number":"32213","postal_code":"39631"},
{"city":"Margasana","street":"Dovetail","street_number":"14","postal_code":"24469"},
{"city":"Heshi","street":"Waubesa","street_number":"19511","postal_code":"67574"},
{"city":"Sidaohezi","street":"8th","street_number":"1","postal_code":"78972"},
{"city":"Aţ Ţawāḩīn","street":"Fieldstone","street_number":"2","postal_code":"4"},
{"city":"Balai","street":"Swallow","street_number":"0","postal_code":"7"},
{"city":"Ganta","street":"Sullivan","street_number":"430","postal_code":"8"},
{"city":"Duifang","street":"Lakewood","street_number":"146","postal_code":"26"},
{"city":"La Quebrada","street":"Green Ridge","street_number":"8","postal_code":"1386"},
{"city":"Novobiryusinskiy","street":"Charing Cross","street_number":"49","postal_code":"021"},
{"city":"Newark","street":"Gerald","street_number":"1","postal_code":"13"},
{"city":"Bulawayo","street":"Warner","street_number":"08","postal_code":"5"},
{"city":"Hule","street":"Spenser","street_number":"1217","postal_code":"900"},
{"city":"Wasilków","street":"Macpherson","street_number":"23266","postal_code":"39"},
{"city":"Töysä","street":"Mesta","street_number":"0593","postal_code":"0537"},
{"city":"Bajingmeduro","street":"Shasta","street_number":"40","postal_code":"6800"},
{"city":"North Bay","street":"Karstens","street_number":"9775","postal_code":"0"},
{"city":"Azeitão","street":"Graedel","street_number":"45752","postal_code":"14"},
{"city":"Bécancour","street":"Fuller","street_number":"5","postal_code":"7"},
{"city":"Hwange","street":"Lerdahl","street_number":"21803","postal_code":"8"},
{"city":"Strohonivka","street":"Butternut","street_number":"1","postal_code":"00401"},
{"city":"Kobryn","street":"Welch","street_number":"31313","postal_code":"9642"},
{"city":"Xiangrong","street":"Burrows","street_number":"41","postal_code":"51"},
{"city":"Kratié","street":"Kensington","street_number":"98545","postal_code":"21096"},
{"city":"Carmen","street":"Oriole","street_number":"349","postal_code":"73979"},
{"city":"Oklahoma City","street":"Thackeray","street_number":"4877","postal_code":"3116"},
{"city":"Ariguaní","street":"Ridgeway","street_number":"5775","postal_code":"19138"},
{"city":"El Hamma","street":"Fuller","street_number":"113","postal_code":"927"},
{"city":"Pingding","street":"Little Fleur","street_number":"4","postal_code":"9412"},
{"city":"Yelenendorf","street":"Scoville","street_number":"0513","postal_code":"85"},
{"city":"Tukuyu","street":"Petterle","street_number":"29103","postal_code":"33"},
{"city":"Fak Tha","street":"Fordem","street_number":"91295","postal_code":"4691"},
{"city":"Weishan","street":"Rutledge","street_number":"58132","postal_code":"181"},
{"city":"Bridgetown","street":"Fairfield","street_number":"634","postal_code":"6715"},
{"city":"Hikone","street":"Tomscot","street_number":"65078","postal_code":"8"},
{"city":"Xiangyang","street":"Northridge","street_number":"18","postal_code":"2763"},
{"city":"Donghai","street":"Bobwhite","street_number":"7908","postal_code":"06"},
{"city":"Brgy. Nalook, kalibo","street":"Oxford","street_number":"269","postal_code":"4"},
{"city":"Dongchong","street":"Artisan","street_number":"29","postal_code":"1431"},
{"city":"Heshui","street":"Karstens","street_number":"366","postal_code":"036"},
{"city":"Changshan","street":"Granby","street_number":"3592","postal_code":"1"},
{"city":"Yongfeng","street":"Chive","street_number":"8092","postal_code":"67788"},
{"city":"Quận Tân Phú","street":"Roth","street_number":"718","postal_code":"26095"},
{"city":"Simpangpasir","street":"Warrior","street_number":"66682","postal_code":"880"},
{"city":"East London","street":"Commercial","street_number":"57","postal_code":"662"},
{"city":"Shuibian","street":"Annamark","street_number":"018","postal_code":"04103"},
{"city":"Студеничани","street":"Meadow Vale","street_number":"120","postal_code":"24"},
{"city":"Mauraro","street":"Menomonie","street_number":"593","postal_code":"474"},
{"city":"Ampahana","street":"Fairview","street_number":"29907","postal_code":"76875"},
{"city":"Mubo","street":"Novick","street_number":"3","postal_code":"08449"},
{"city":"Tetandara","street":"Becker","street_number":"15","postal_code":"40094"},
{"city":"Ostrožská Lhota","street":"School","street_number":"397","postal_code":"8770"},
{"city":"Gbawe","street":"Anhalt","street_number":"7","postal_code":"4197"},
{"city":"Panyindangan","street":"Sauthoff","street_number":"50","postal_code":"86"},
{"city":"Bayanbulag","street":"Dwight","street_number":"4","postal_code":"42"},
{"city":"Novoderevyankovskaya","street":"Village","street_number":"8055","postal_code":"0997"},
{"city":"Dongmaku","street":"Golf View","street_number":"7","postal_code":"619"},
{"city":"Laboulaye","street":"Straubel","street_number":"19","postal_code":"597"},
{"city":"Trindade","street":"Pierstorff","street_number":"75","postal_code":"23"},
{"city":"L-Iklin","street":"Bowman","street_number":"0368","postal_code":"3028"},
{"city":"Nieuwegein","street":"Golf","street_number":"4","postal_code":"8"},
{"city":"Nossa Senhora de Machede","street":"Prairie Rose","street_number":"7814","postal_code":"2722"},
{"city":"Sunjia Buzi","street":"Sunbrook","street_number":"1602","postal_code":"2"},
{"city":"West End","street":"Bonner","street_number":"00877","postal_code":"1"},
{"city":"Tianjin","street":"Mallard","street_number":"6914","postal_code":"78"},
{"city":"Planeta Rica","street":"Texas","street_number":"92117","postal_code":"760"},
{"city":"Willowdale","street":"Del Mar","street_number":"9","postal_code":"62712"},
{"city":"Quwaysinā","street":"Armistice","street_number":"78007","postal_code":"90"},
{"city":"Daidaon","street":"Bay","street_number":"7","postal_code":"58"},
{"city":"Rudong","street":"Johnson","street_number":"5321","postal_code":"86"},
{"city":"Sumberingin Kulon","street":"Merchant","street_number":"06878","postal_code":"634"},
{"city":"Aryiropoúlion","street":"Reinke","street_number":"70960","postal_code":"670"},
{"city":"Longbei","street":"Northland","street_number":"899","postal_code":"3446"},
{"city":"Hongqiao","street":"Daystar","street_number":"82","postal_code":"8"},
{"city":"Sentul","street":"Bartelt","street_number":"669","postal_code":"61"},
{"city":"Pirapozinho","street":"Division","street_number":"0131","postal_code":"7"},
{"city":"Santa Lucía","street":"Jana","street_number":"35396","postal_code":"12"},
{"city":"San Agustín de Valle Fértil","street":"Cascade","street_number":"75812","postal_code":"43208"},
{"city":"Shanmu","street":"American","street_number":"057","postal_code":"1"},
{"city":"Sawo","street":"Bluejay","street_number":"0","postal_code":"9"},
{"city":"Fantan","street":"Washington","street_number":"600","postal_code":"3954"},
{"city":"Qianshan","street":"Bashford","street_number":"74786","postal_code":"09204"},
{"city":"Krajan Satu","street":"Donald","street_number":"643","postal_code":"774"},
{"city":"Zolotkovo","street":"Anhalt","street_number":"46644","postal_code":"44"},
{"city":"Kadaka","street":"Meadow Valley","street_number":"306","postal_code":"268"},
{"city":"Freiburg im Breisgau","street":"Erie","street_number":"1321","postal_code":"099"},
{"city":"Krajan Dua Sumbersari","street":"Badeau","street_number":"312","postal_code":"90521"},
{"city":"Jalasenga","street":"Banding","street_number":"6363","postal_code":"7568"},
{"city":"Sim","street":"Mendota","street_number":"6","postal_code":"07"},
{"city":"Batobato","street":"Kenwood","street_number":"3644","postal_code":"72"},
{"city":"Kalidawir","street":"Anhalt","street_number":"4485","postal_code":"24466"},
{"city":"Zhongfeng","street":"Superior","street_number":"81012","postal_code":"6592"},
{"city":"San Miguel","street":"Crest Line","street_number":"05969","postal_code":"58"},
{"city":"Meijiang","street":"Dottie","street_number":"84618","postal_code":"21870"},
{"city":"Amphawa","street":"Beilfuss","street_number":"369","postal_code":"6"},
{"city":"Dobra","street":"Onsgard","street_number":"501","postal_code":"457"},
{"city":"Arganil","street":"Eastlawn","street_number":"4","postal_code":"8834"},
{"city":"Krzyżanowice","street":"Lillian","street_number":"82809","postal_code":"48062"},
{"city":"Vinhedo","street":"Barnett","street_number":"87648","postal_code":"2"},
{"city":"Njivice","street":"4th","street_number":"67","postal_code":"0"},
{"city":"Lagoa Santa","street":"Anniversary","street_number":"187","postal_code":"3169"},
{"city":"Purwosari","street":"Maywood","street_number":"686","postal_code":"66595"},
{"city":"Milwaukee","street":"Hagan","street_number":"4","postal_code":"1311"},
{"city":"São Vicente","street":"Center","street_number":"3","postal_code":"53"},
{"city":"Qianguo","street":"Meadow Vale","street_number":"915","postal_code":"180"},
{"city":"Sumbuya","street":"Eliot","street_number":"3","postal_code":"2"},
{"city":"Yazykovo","street":"Pearson","street_number":"12488","postal_code":"8345"},
{"city":"Muarapinang","street":"Mallard","street_number":"5","postal_code":"7585"},
{"city":"Fenshui","street":"Straubel","street_number":"6","postal_code":"90426"},
{"city":"Sinajana Village","street":"Buena Vista","street_number":"84","postal_code":"72111"},
{"city":"Boston","street":"Welch","street_number":"1","postal_code":"472"},
{"city":"Benhong","street":"Farwell","street_number":"0439","postal_code":"07"},
{"city":"Miān Channūn","street":"Pepper Wood","street_number":"338","postal_code":"2234"},
{"city":"Obock","street":"Upham","street_number":"943","postal_code":"40"},
{"city":"Estarreja","street":"Northland","street_number":"0501","postal_code":"50"},
{"city":"Sredno Konjare","street":"5th","street_number":"53067","postal_code":"7"},
{"city":"Kuantan","street":"Barnett","street_number":"30","postal_code":"15"},
{"city":"Chirilagua","street":"Killdeer","street_number":"34","postal_code":"58"},
{"city":"Lucija","street":"Oak","street_number":"9","postal_code":"637"},
{"city":"Maquiapo","street":"Monterey","street_number":"52127","postal_code":"8"},
{"city":"Huazhou","street":"New Castle","street_number":"44688","postal_code":"41722"},
{"city":"Vinež","street":"Hovde","street_number":"12089","postal_code":"52307"},
{"city":"Koszęcin","street":"Schiller","street_number":"99","postal_code":"14"},
{"city":"Eg-Uur","street":"Melody","street_number":"74943","postal_code":"4542"},
{"city":"Sidayu","street":"Maryland","street_number":"1289","postal_code":"027"},
{"city":"Ponte","street":"Blackbird","street_number":"9","postal_code":"26355"},
{"city":"Osiedle-Nowiny","street":"Sunfield","street_number":"17","postal_code":"351"},
{"city":"Kerrouchen","street":"Morrow","street_number":"891","postal_code":"74"},
{"city":"Cabucgayan","street":"Drewry","street_number":"60069","postal_code":"5624"},
{"city":"Piuí","street":"Arizona","street_number":"707","postal_code":"18"},
{"city":"Napoles","street":"Northfield","street_number":"093","postal_code":"6"},
{"city":"Heilbronn","street":"Brown","street_number":"3021","postal_code":"3"},
{"city":"Norrköping","street":"Jenna","street_number":"95","postal_code":"3990"},
{"city":"Padasono","street":"Mendota","street_number":"7329","postal_code":"8"},
{"city":"Shahumyan","street":"Mccormick","street_number":"8608","postal_code":"97"},
{"city":"Paris 16","street":"Hoard","street_number":"89","postal_code":"611"},
{"city":"Ulaanbaatar","street":"Old Gate","street_number":"877","postal_code":"2"},
{"city":"Baikouquan","street":"New Castle","street_number":"950","postal_code":"8885"},
{"city":"Huanfeng","street":"Dottie","street_number":"34","postal_code":"664"},
{"city":"Portarlington","street":"Express","street_number":"0","postal_code":"7"},
{"city":"Selorejo","street":"Dapin","street_number":"9023","postal_code":"61334"},
{"city":"Sobral","street":"3rd","street_number":"2","postal_code":"2685"}]